[{"OBJECT_NAME":"NUSAT-48 (HENRIETTA LEAVITT)","OBJECT_ID":"2024-149AG","EPOCH":"2026-03-09T19:19:17.269536","MEAN_MOTION":15.29812597,"ECCENTRICITY":0.00027538,"INCLINATION":97.3923,"RA_OF_ASC_NODE":150.8264,"ARG_OF_PERICENTER":263.3026,"MEAN_ANOMALY":96.7901,"EPHEMERIS_TYPE":0,"CLASSIFICATION_TYPE":"U","NORAD_CAT_ID":60498,"ELEMENT_SET_NO":999,"REV_AT_EPOCH":8694,"BSTAR":0.00045211745,"MEAN_MOTION_DOT":0.00012988,"MEAN_MOTION_DDOT":0},{"OBJECT_NAME":"STARLINK-36552","OBJECT_ID":"2026-012L","EPOCH":"2026-03-09T22:49:41.343744","MEAN_MOTION":15.27600712,"ECCENTRICITY":3.977e-5,"INCLINATION":42.9977,"RA_OF_ASC_NODE":312.7612,"ARG_OF_PERICENTER":236.0011,"MEAN_ANOMALY":124.0803,"EPHEMERIS_TYPE":0,"CLASSIFICATION_TYPE":"U","NORAD_CAT_ID":67503,"ELEMENT_SET_NO":999,"REV_AT_EPOCH":780,"BSTAR":0.0010329756,"MEAN_MOTION_DOT":0.0002829,"MEAN_MOTION_DDOT":0}]
